NORAD_CAT_ID,OBJECT_NAME,OBJECT_TYPE,EPOCH,MEAN_MOTION,ECCENTRICITY,INCLINATION,RA_OF_ASC_NODE,ARG_OF_PERICENTER,MEAN_ANOMALY,BSTAR,MEAN_MOTION_DOT,MEAN_MOTION_DDOT,TLE_LINE0,TLE_LINE1,TLE_LINE2,SEMIMAJOR_AXIS,PERIOD,APOGEE,PERIGEE,DECAYED
55919.0,STARLINK-5871,PAYLOAD,2023-05-13 14:00:01,15.17267702,0.0003096,70.0017,24.6718,268.9657,194.2707,-0.047864,-0.00887365,0.0,0 STARLINK-5871,1 55919U 23037F   23133.58334491 -.00887365  00000-0 -47864-1 0  9992,2 55919  70.0017  24.6718 0003096 268.9657 194.2707 15.17267702  9361,6892.24,94.907,516.238,511.971,0.0
55919.0,STARLINK-5871,PAYLOAD,2023-05-13 22:00:00,15.16617026,0.0003066,70.002,23.8068,271.964,211.0942,-0.050338,-0.00913921,0.0,0 STARLINK-5871,1 55919U 23037F   23133.91667824 -.00913921  00000-0 -50338-1 0  9996,2 55919  70.0020  23.8068 0003066 271.9640 211.0942 15.16617026  1309,6894.211,94.948,518.19,513.962,0.0
55919.0,STARLINK-5871,PAYLOAD,2023-05-14 08:00:01,15.15826658,0.0003002,70.0018,22.7265,270.4568,326.3184,-0.053811,-0.0095207,0.0,0 STARLINK-5871,1 55919U 23037F   23134.33335648 -.00952070  00000-0 -53811-1 0  9996,2 55919  70.0018  22.7265 0003002 270.4568 326.3184 15.15826658  9483,6896.607,94.998,520.542,516.402,0.0
55919.0,STARLINK-5871,PAYLOAD,2023-05-14 14:00:01,15.15314753,0.0002951,70.002,22.0793,266.7799,253.5458,-0.050971,-0.00893189,0.0,0 STARLINK-5871,1 55919U 23037F   23134.58334491 -.00893189  00000-0 -50971-1 0  9997,2 55919  70.0020  22.0793 0002951 266.7799 253.5458 15.15314753  1307,6898.16,95.03,522.061,517.99,0.0
55919.0,STARLINK-5871,PAYLOAD,2023-05-14 22:00:00,15.14656026,0.0003005,70.0022,21.2169,270.484,267.3203,-0.052783,-0.00906777,0.0,0 STARLINK-5871,1 55919U 23037F   23134.91667824 -.00906777  00000-0 -52783-1 0  9994,2 55919  70.0022  21.2169 0003005 270.4840 267.3203 15.14656026  1309,6900.16,95.071,524.099,519.952,0.0
55919.0,STARLINK-5871,PAYLOAD,2023-05-15 02:00:01,15.14329466,0.0003169,70.0023,20.7859,273.0327,93.2046,-0.052206,-0.0088991,0.0,0 STARLINK-5871,1 55919U 23037F   23135.08334491 -.00889910  00000-0 -52206-1 0  9993,2 55919  70.0023  20.7859 0003169 273.0327  93.2046 15.14329466  9595,6901.152,95.092,525.204,520.83,0.0
55919.0,STARLINK-5871,PAYLOAD,2023-05-15 14:00:01,15.13363244,0.0002964,70.0021,19.4947,264.4084,305.9671,-0.054426,-0.0090186,0.0,0 STARLINK-5871,1 55919U 23037F   23135.58334491 -.00901860  00000-0 -54426-1 0  9993,2 55919  70.0021  19.4947 0002964 264.4084 305.9671 15.13363244  1301,6904.089,95.152,528.0,523.908,0.0
55919.0,STARLINK-5871,PAYLOAD,2023-05-15 16:00:00,15.13228246,0.0003142,70.0024,19.2797,264.0993,40.1208,-0.057672,-0.00948315,0.0,0 STARLINK-5871,1 55919U 23037F   23135.66667824 -.00948315  00000-0 -57672-1 0  9993,2 55919  70.0024  19.2797 0003142 264.0993  40.1208 15.13228246  9684,6904.5,95.161,528.534,524.195,0.0
55919.0,STARLINK-5871,PAYLOAD,2023-05-15 22:00:00,15.12695524,0.0002999,70.0024,18.6348,269.0908,316.4186,-0.055322,-0.00899839,0.0,0 STARLINK-5871,1 55919U 23037F   23135.91667824 -.00899839  00000-0 -55322-1 0  9997,2 55919  70.0024  18.6348 0002999 269.0908 316.4186 15.12695524  1300,6906.121,95.194,530.057,525.914,0.0
55919.0,STARLINK-5871,PAYLOAD,2023-05-16 14:00:01,15.11411073,0.0003087,70.0022,16.9179,263.3692,350.0801,-0.058081,-0.00910603,0.0,0 STARLINK-5871,1 55919U 23037F   23136.58335648 -.00910603  00000-0 -58081-1 0  9995,2 55919  70.0022  16.9179 0003087 263.3692 350.0801 15.11411073  1309,6910.033,95.275,534.031,529.765,0.0
55919.0,STARLINK-5871,PAYLOAD,2023-05-16 22:00:00,15.10734587,0.0003045,70.0024,16.0607,268.4662,357.7085,-0.057879,-0.00891947,0.0,0 STARLINK-5871,1 55919U 23037F   23136.91667824 -.00891947  00000-0 -57879-1 0  9999,2 55919  70.0024  16.0607 0003045 268.4662 357.7085 15.10734587  9870,6912.095,95.318,536.065,531.856,0.0
55919.0,STARLINK-5871,PAYLOAD,2023-05-17 14:00:01,15.09457768,0.0003125,70.0022,14.3489,263.1089,26.3094,-0.061712,-0.00916155,0.0,0 STARLINK-5871,1 55919U 23037F   23137.58335648 -.00916155  00000-0 -61712-1 0  9999,2 55919  70.0022  14.3489 0003125 263.1089  26.3094 15.09457768  9972,6915.993,95.398,540.019,535.697,0.0
55919.0,STARLINK-5871,PAYLOAD,2023-05-17 22:00:00,15.08775737,0.0003041,70.0021,13.4943,268.5804,31.2174,-0.060743,-0.00887195,0.0,0 STARLINK-5871,1 55919U 23037F   23137.91667824 -.00887195  00000-0 -60743-1 0  9994,2 55919  70.0021  13.4943 0003041 268.5804  31.2174 15.08775737  1308,6918.077,95.442,542.046,537.838,0.0
55919.0,STARLINK-5871,PAYLOAD,2023-05-18 06:00:00,15.08169186,0.0003191,70.0018,12.6404,269.6837,39.7421,-0.067528,-0.00963717,0.0,0 STARLINK-5871,1 55919U 23037F   23138.25001157 -.00963717  00000-0 -67528-1 0  9996,2 55919  70.0018  12.6404 0003191 269.6837  39.7421 15.08169186 10078,6919.932,95.48,544.005,539.588,0.0
55919.0,STARLINK-5871,PAYLOAD,2023-05-18 14:00:01,15.07501352,0.0003177,70.002,11.7876,263.6639,54.6211,-0.06524,-0.00917839,0.0,0 STARLINK-5871,1 55919U 23037F   23138.58334491 -.00917839  00000-0 -65240-1 0  9995,2 55919  70.0020  11.7876 0003177 263.6639  54.6211 15.07501352  1305,6921.975,95.522,546.039,541.641,0.0
55919.0,STARLINK-5871,PAYLOAD,2023-05-18 22:00:00,15.06815848,0.0003077,70.0019,10.9355,269.1548,57.2265,-0.063598,-0.00880969,0.0,0 STARLINK-5871,1 55919U 23037F   23138.91667824 -.00880969  00000-0 -63598-1 0  9998,2 55919  70.0019  10.9355 0003077 269.1548  57.2265 15.06815848 10175,6924.074,95.566,548.07,543.809,0.0
55919.0,STARLINK-5871,PAYLOAD,2023-05-19 14:00:01,15.05548114,0.0003092,70.0018,9.234,264.1071,76.0648,-0.069147,-0.00922232,0.0,0 STARLINK-5871,1 55919U 23037F   23139.58334491 -.00922232  00000-0 -69147-1 0  9999,2 55919  70.0018   9.2340 0003092 264.1071  76.0648 15.05548114 10275,6927.961,95.646,551.968,547.684,0.0
55919.0,STARLINK-5871,PAYLOAD,2023-05-19 22:04:40,15.06554198,0.000383,69.9995,8.3777,277.4798,82.593,-0.01788,-0.00255929,0.0,0 STARLINK-5871,1 55919U 23037F   23139.91991388 -.00255929  00000-0 -17880-1 0  9999,2 55919  69.9995   8.3777 0003830 277.4798  82.5930 15.06554198  9985,6924.876,95.582,549.393,544.089,0.0
55919.0,STARLINK-5871,PAYLOAD,2023-05-20 14:00:01,15.03596984,0.0003142,70.0016,6.6881,264.8549,90.1654,-0.073728,-0.00932318,0.0,0 STARLINK-5871,1 55919U 23037F   23140.58334491 -.00932318  00000-0 -73728-1 0  9997,2 55919  70.0016   6.6881 0003142 264.8549  90.1654 15.03596984 10424,6933.953,95.77,557.996,553.639,0.0
55919.0,STARLINK-5871,PAYLOAD,2023-05-20 22:01:20,15.04455961,0.0003301,70.001,5.8424,267.7731,92.3053,-0.016,-0.00217609,0.0,0 STARLINK-5871,1 55919U 23037F   23140.91759815 -.00217609  00000-0 -16000-1 0  9994,2 55919  70.0010   5.8424 0003301 267.7731  92.3053 15.04455961 10139,6931.313,95.716,555.466,550.89,0.0
55919.0,STARLINK-5871,PAYLOAD,2023-05-21 13:59:58,15.03363448,0.0003468,70.0002,4.1542,228.4607,131.6257,-0.015423,-0.00204133,0.0,0 STARLINK-5871,1 55919U 23037F   23141.58331311 -.00204133  00000-0 -15423-1 0  9991,2 55919  70.0002   4.1542 0003468 228.4607 131.6257 15.03363448 10234,6934.671,95.785,558.941,554.131,0.0
55919.0,STARLINK-5871,PAYLOAD,2023-05-21 18:48:02,15.02850459,0.000292,69.9999,3.6487,257.039,103.0445,-0.019597,-0.00254048,0.0,0 STARLINK-5871,1 55919U 23037F   23141.78336597 -.00254048  00000-0 -19597-1 0  9990,2 55919  69.9999   3.6487 0002920 257.0390 103.0445 15.02850459 10264,6936.249,95.818,560.139,556.088,0.0
55919.0,STARLINK-5871,PAYLOAD,2023-05-21 22:00:00,15.00943467,0.0003081,70.0012,3.3055,271.9192,91.9673,-0.073654,-0.00872545,0.0,0 STARLINK-5871,1 55919U 23037F   23141.91667824 -.00872545  00000-0 -73654-1 0  9997,2 55919  70.0012   3.3055 0003081 271.9192  91.9673 15.00943467 10623,6942.123,95.94,566.127,561.849,0.0
55919.0,STARLINK-5871,PAYLOAD,2023-05-22 01:11:54,15.02323643,0.0003462,69.9994,2.9728,295.3328,64.7474,-0.019685,-0.0025175,0.0,0 STARLINK-5871,1 55919U 23037F   23142.04993324 -.00251750  00000-0 -19685-1 0  9992,2 55919  69.9994   2.9728 0003462 295.3328  64.7474 15.02323643 10644,6937.87,95.852,562.137,557.333,0.0
55919.0,STARLINK-5871,PAYLOAD,2023-05-22 14:00:00,15.01266664,0.0002994,69.9995,1.6243,262.4133,97.6688,-0.019394,-0.0024154,0.0,0 STARLINK-5871,1 55919U 23037F   23142.58333536 -.00241540  00000-0 -19394-1 0  9997,2 55919  69.9995   1.6243 0002994 262.4133  97.6688 15.01266664 10382,6941.126,95.919,565.069,560.913,0.0
55919.0,STARLINK-5871,PAYLOAD,2023-05-22 14:00:01,14.99501535,0.0002976,70.0011,1.6194,265.2734,98.3488,-0.023109,-0.0027355,0.0,0 STARLINK-5871,1 55919U 23037F   23142.58334491 -.00273550  00000-0 -23109-1 0  9993,2 55919  70.0011   1.6194 0002976 265.2734  98.3488 14.99501535 10726,6946.572,96.032,570.505,566.37,0.0
55919.0,STARLINK-5871,PAYLOAD,2023-05-22 20:24:07,15.0096182,0.0002495,69.9999,0.9504,246.6748,113.415,-0.020916,-0.00257805,0.0,0 STARLINK-5871,1 55919U 23037F   23142.85008500 -.00257805  00000-0 -20916-1 0  9990,2 55919  69.9999   0.9504 0002495 246.6748 113.4150 15.00961820 10421,6942.066,95.938,565.663,562.199,0.0
55919.0,STARLINK-5871,PAYLOAD,2023-05-22 22:00:00,14.99290946,0.0002976,70.0011,0.7772,272.0127,90.3804,0.00022864,2.704e-05,0.0,0 STARLINK-5871,1 55919U 23037F   23142.91667824  .00002704  00000-0  22864-3 0  9997,2 55919  70.0011   0.7772 0002976 272.0127  90.3804 14.99290946 10770,6947.223,96.045,571.155,567.02,0.0
55919.0,STARLINK-5871,PAYLOAD,2023-05-23 22:00:00,14.99295512,0.0003091,70.0012,358.2516,271.7859,86.5252,7.1738e-05,7.84e-06,0.0,0 STARLINK-5871,1 55919U 23037F   23143.91667824  .00000784  00000-0  71738-4 0  9999,2 55919  70.0012 358.2516 0003091 271.7859  86.5252 14.99295512  1290,6947.209,96.045,571.221,566.926,0.0
55919.0,STARLINK-5871,PAYLOAD,2023-05-24 06:00:00,14.9931321,0.0003089,70.0009,357.4098,270.7028,86.2474,-0.0036038,-0.0004393,0.0,0 STARLINK-5871,1 55919U 23037F   23144.25001157 -.00043930  00000-0 -36038-2 0  9992,2 55919  70.0009 357.4098 0003089 270.7028  86.2474 14.99313210 10970,6947.154,96.044,571.165,566.873,0.0
